{"type": "FeatureCollection", "features": [ {"type": "Feature", "properties": {"norad_id": 66561, "name": "STARLINK-35305", "group": "last-30-days", "lat": -1.8342142535132977, "lon": 105.00374008636409, "alt_km": 414.18251851566947, "timestamp": "2025-12-15T04:01:19.179596+00:00", "meta": {"OBJECT_NAME": "STARLINK-35305", "OBJECT_ID": "2025-268E", "EPOCH": "2025-12-14T01:45:16.679808", "MEAN_MOTION": 15.50577223, "ECCENTRICITY": 0.00010117, "INCLINATION": 42.9991, "RA_OF_ASC_NODE": 113.378, "ARG_OF_PERICENTER": 263.8473, "MEAN_ANOMALY": 96.2271, "EPHEMERIS_TYPE": 0, "CLASSIFICATION_TYPE": "U", "NORAD_CAT_ID": 66561, "ELEMENT_SET_NO": 999, "REV_AT_EPOCH": 483, "BSTAR": 0.0021671346, "MEAN_MOTION_DOT": 0.00128899, "MEAN_MOTION_DDOT": 0}, "tle": {"line1": "1 66561U 25268E   25348.07310972  .00128899  00000+0  21671-2 0  9993", "line2": "2 66561  42.9991 113.3780 0001011 263.8473  96.2271 15.50577223  4838"}}, "geometry": {"type": "Point", "coordinates": [105.00374008636409, -1.8342142535132977]}}, {"type": "Feature", "properties": {"norad_id": 66562, "name": "STARLINK-35579", "group": "last-30-days", "lat": -3.0510549680699133, "lon": 103.69889061115786, "alt_km": 413.7158774385398, "timestamp": "2025-12-15T04:01:19.179608+00:00", "meta": {"OBJECT_NAME": "STARLINK-35579", "OBJECT_ID": "2025-268F", "EPOCH": "2025-12-14T01:45:45.886464", "MEAN_MOTION": 15.50587495, "ECCENTRICITY": 0.00023012, "INCLINATION": 42.9997, "RA_OF_ASC_NODE": 113.381, "ARG_OF_PERICENTER": 279.1651, "MEAN_ANOMALY": 80.8949, "EPHEMERIS_TYPE": 0, "CLASSIFICATION_TYPE": "U", "NORAD_CAT_ID": 66562, "ELEMENT_SET_NO": 999, "REV_AT_EPOCH": 483, "BSTAR": 0.0024162498, "MEAN_MOTION_DOT": 0.00144095, "MEAN_MOTION_DDOT": 0}, "tle": {"line1": "1 66562U 25268F   25348.07344776  .00144095  00000+0  24162-2 0  9997", "line2": "2 66562  42.9997 113.3810 0002301 279.1651  80.8949 15.50587495  4833"}}, "geometry": {"type": "Point", "coordinates": [103.69889061115786, -3.0510549680699133]}}, {"type": "Feature", "properties": {"norad_id": 66563, "name": "STARLINK-35437", "group": "last-30-days", "lat": -0.5181252969384587, "lon": 106.41202673559503, "alt_km": 413.9648761731396, "timestamp": "2025-12-15T04:01:19.179620+00:00", "meta": {"OBJECT_NAME": "STARLINK-35437", "OBJECT_ID": "2025-268G", "EPOCH": "2025-12-14T01:44:47.151744", "MEAN_MOTION": 15.50576271, "ECCENTRICITY": 8.549e-05, "INCLINATION": 42.9992, "RA_OF_ASC_NODE": 113.3749, "ARG_OF_PERICENTER": 268.479, "MEAN_ANOMALY": 91.5972, "EPHEMERIS_TYPE": 0, "CLASSIFICATION_TYPE": "U", "NORAD_CAT_ID": 66563, "ELEMENT_SET_NO": 999, "REV_AT_EPOCH": 483, "BSTAR": 0.0022627282, "MEAN_MOTION_DOT": 0.00134696, "MEAN_MOTION_DDOT": 0}, "tle": {"line1": "1 66563U 25268G   25348.07276796  .00134696  00000+0  22627-2 0  9994", "line2": "2 66563  42.9992 113.3749 0000854 268.4790  91.5972 15.50576271  4831"}}, "geometry": {"type": "Point", "coordinates": [106.41202673559503, -0.5181252969384587]}}, {"type": "Feature", "properties": {"norad_id": 66564, "name": "STARLINK-35358", "group": "last-30-days", "lat": 0.8543371842493687, "lon": 107.88020833077587, "alt_km": 413.64595408858077, "timestamp": "2025-12-15T04:01:19.179630+00:00", "meta": {"OBJECT_NAME": "STARLINK-35358", "OBJECT_ID": "2025-268H", "EPOCH": "2025-12-14T01:44:17.239200", "MEAN_MOTION": 15.50586781, "ECCENTRICITY": 0.00013439, "INCLINATION": 42.999, "RA_OF_ASC_NODE": 113.3723, "ARG_OF_PERICENTER": 271.6128, "MEAN_ANOMALY": 88.4578, "EPHEMERIS_TYPE": 0, "CLASSIFICATION_TYPE": "U", "NORAD_CAT_ID": 66564, "ELEMENT_SET_NO": 999, "REV_AT_EPOCH": 483, "BSTAR": 0.0024037033, "MEAN_MOTION_DOT": 0.00143323, "MEAN_MOTION_DDOT": 0}, "tle": {"line1": "1 66564U 25268H   25348.07242175  .00143323  00000+0  24037-2 0  9993", "line2": "2 66564  42.9990 113.3723 0001343 271.6128  88.4578 15.50586781  4831"}}, "geometry": {"type": "Point", "coordinates": [107.88020833077587, 0.8543371842493687]}}, {"type": "Feature", "properties": {"norad_id": 66565, "name": "STARLINK-35893", "group": "last-30-days", "lat": 2.0298300506211104, "lon": 109.13883363925525, "alt_km": 413.60056196113874, "timestamp": "2025-12-15T04:01:19.179640+00:00", "meta": {"OBJECT_NAME": "STARLINK-35893", "OBJECT_ID": "2025-268J", "EPOCH": "2025-12-14T01:43:47.566848", "MEAN_MOTION": 15.50570727, "ECCENTRICITY": 0.00014078, "INCLINATION": 42.9998, "RA_OF_ASC_NODE": 113.3696, "ARG_OF_PERICENTER": 281.3662, "MEAN_ANOMALY": 78.704, "EPHEMERIS_TYPE": 0, "CLASSIFICATION_TYPE": "U", "NORAD_CAT_ID": 66565, "ELEMENT_SET_NO": 999, "REV_AT_EPOCH": 483, "BSTAR": 0.0018912957, "MEAN_MOTION_DOT": 0.00112182, "MEAN_MOTION_DDOT": 0}, "tle": {"line1": "1 66565U 25268J   25348.07207832  .00112182  00000+0  18913-2 0  9990", "line2": "2 66565  42.9998 113.3696 0001407 281.3662  78.7040 15.50570727  4830"}}, "geometry": {"type": "Point", "coordinates": [109.13883363925525, 2.0298300506211104]}}, {"type": "Feature", "properties": {"norad_id": 66566, "name": "STARLINK-35871", "group": "last-30-days", "lat": 3.4560592337045626, "lon": 110.66954437399829, "alt_km": 413.5540873056834, "timestamp": "2025-12-15T04:01:19.179650+00:00", "meta": {"OBJECT_NAME": "STARLINK-35871", "OBJECT_ID": "2025-268K", "EPOCH": "2025-12-14T01:43:17.772672", "MEAN_MOTION": 15.50587767, "ECCENTRICITY": 0.00013486, "INCLINATION": 42.9993, "RA_OF_ASC_NODE": 113.3665, "ARG_OF_PERICENTER": 261.2241, "MEAN_ANOMALY": 98.8466, "EPHEMERIS_TYPE": 0, "CLASSIFICATION_TYPE": "U", "NORAD_CAT_ID": 66566, "ELEMENT_SET_NO": 999, "REV_AT_EPOCH": 483, "BSTAR": 0.0022775912, "MEAN_MOTION_DOT": 0.00135656, "MEAN_MOTION_DDOT": 0}, "tle": {"line1": "1 66566U 25268K   25348.07173348  .00135656  00000+0  22776-2 0  9998", "line2": "2 66566  42.9993 113.3665 0001348 261.2241  98.8466 15.50587767  4833"}}, "geometry": {"type": "Point", "coordinates": [110.66954437399829, 3.4560592337045626]}}, {"type": "Feature", "properties": {"norad_id": 66567, "name": "STARLINK-35825", "group": "last-30-days", "lat": 4.674741011800433, "lon": 111.98384379971532, "alt_km": 413.2209583658132, "timestamp": "2025-12-15T04:01:19.179659+00:00", "meta": {"OBJECT_NAME": "STARLINK-35825", "OBJECT_ID": "2025-268L", "EPOCH": "2025-12-14T01:42:48.512448", "MEAN_MOTION": 15.50579443, "ECCENTRICITY": 9.118e-05, "INCLINATION": 42.9984, "RA_OF_ASC_NODE": 113.3641, "ARG_OF_PERICENTER": 288.5977, "MEAN_ANOMALY": 71.4784, "EPHEMERIS_TYPE": 0, "CLASSIFICATION_TYPE": "U", "NORAD_CAT_ID": 66567, "ELEMENT_SET_NO": 999, "REV_AT_EPOCH": 483, "BSTAR": 0.0020129356, "MEAN_MOTION_DOT": 0.00119569, "MEAN_MOTION_DDOT": 0}, "tle": {"line1": "1 66567U 25268L   25348.07139482  .00119569  00000+0  20129-2 0  9995", "line2": "2 66567  42.9984 113.3641 0000911 288.5977  71.4784 15.50579443  4833"}}, "geometry": {"type": "Point", "coordinates": [111.98384379971532, 4.674741011800433]}}, {"type": "Feature", "properties": {"norad_id": 66568, "name": "STARLINK-35803", "group": "last-30-days", "lat": 5.953401590594581, "lon": 113.36910240881586, "alt_km": 413.3799812871348, "timestamp": "2025-12-15T04:01:19.179669+00:00", "meta": {"OBJECT_NAME": "STARLINK-35803", "OBJECT_ID": "2025-268M", "EPOCH": "2025-12-14T01:42:18.597312", "MEAN_MOTION": 15.5057907, "ECCENTRICITY": 0.00015375, "INCLINATION": 42.9993, "RA_OF_ASC_NODE": 113.3602, "ARG_OF_PERICENTER": 267.368, "MEAN_ANOMALY": 92.7004, "EPHEMERIS_TYPE": 0, "CLASSIFICATION_TYPE": "U", "NORAD_CAT_ID": 66568, "ELEMENT_SET_NO": 999, "REV_AT_EPOCH": 483, "BSTAR": 0.0018208128, "MEAN_MOTION_DOT": 0.00107962, "MEAN_MOTION_DDOT": 0}, "tle": {"line1": "1 66568U 25268M   25348.07104858  .00107962  00000+0  18208-2 0  9994", "line2": "2 66568  42.9993 113.3602 0001537 267.3680  92.7004 15.50579070  4839"}}, "geometry": {"type": "Point", "coordinates": [113.36910240881586, 5.953401590594581]}}, {"type": "Feature", "properties": {"norad_id": 66569, "name": "STARLINK-35835", "group": "last-30-days", "lat": 7.269912864230933, "lon": 114.80688167458584, "alt_km": 412.9490345745262, "timestamp": "2025-12-15T04:01:19.179679+00:00", "meta": {"OBJECT_NAME": "STARLINK-35835", "OBJECT_ID": "2025-268N", "EPOCH": "2025-12-14T01:41:49.019136", "MEAN_MOTION": 15.50577342, "ECCENTRICITY": 0.00014813, "INCLINATION": 42.9997, "RA_OF_ASC_NODE": 113.357, "ARG_OF_PERICENTER": 280.6142, "MEAN_ANOMALY": 79.4551, "EPHEMERIS_TYPE": 0, "CLASSIFICATION_TYPE": "U", "NORAD_CAT_ID": 66569, "ELEMENT_SET_NO": 999, "REV_AT_EPOCH": 483, "BSTAR": 0.0019724573, "MEAN_MOTION_DOT": 0.00117112, "MEAN_MOTION_DDOT": 0}, "tle": {"line1": "1 66569U 25268N   25348.07070624  .00117112  00000+0  19725-2 0  9991", "line2": "2 66569  42.9997 113.3570 0001481 280.6142  79.4551 15.50577342  4836"}}, "geometry": {"type": "Point", "coordinates": [114.80688167458584, 7.269912864230933]}}, {"type": "Feature", "properties": {"norad_id": 66570, "name": "STARLINK-35834", "group": "last-30-days", "lat": 8.547694020820693, "lon": 116.21557902541201, "alt_km": 413.01381717463573, "timestamp": "2025-12-15T04:01:19.179692+00:00", "meta": {"OBJECT_NAME": "STARLINK-35834", "OBJECT_ID": "2025-268P", "EPOCH": "2025-12-14T01:41:19.305312", "MEAN_MOTION": 15.50576335, "ECCENTRICITY": 0.000178, "INCLINATION": 43, "RA_OF_ASC_NODE": 113.3541, "ARG_OF_PERICENTER": 270.789, "MEAN_ANOMALY": 89.2766, "EPHEMERIS_TYPE": 0, "CLASSIFICATION_TYPE": "U", "NORAD_CAT_ID": 66570, "ELEMENT_SET_NO": 999, "REV_AT_EPOCH": 483, "BSTAR": 0.0018814998, "MEAN_MOTION_DOT": 0.00111614, "MEAN_MOTION_DDOT": 0}, "tle": {"line1": "1 66570U 25268P   25348.07036233  .00111614  00000+0  18815-2 0  9991", "line2": "2 66570  43.0000 113.3541 0001780 270.7890  89.2766 15.50576335  4833"}}, "geometry": {"type": "Point", "coordinates": [116.21557902541201, 8.547694020820693]}}]}